INTELSAT 34             
1 40874C 15039A   21224.00000000 -.00003887  00000-0  00000-0 0  2240
2 40874   0.0041 209.4580 0001366 152.0122 263.7088  1.00262054    12
INTELSAT 34         [PM]
1 40874C 15039A   21224.13140046 -.00000187  00000-0  00000-0 0  2249
2 40874   0.0460 285.1104 0001144  90.8971 296.5949  1.00273168    13
INTELSAT 34             
1 40874C 15039A   21228.00000000 -.00004228  00000-0  00000-0 0  2288
2 40874   0.0421 281.8216 0001026 132.5613 214.7325  1.00270705    17
INTELSAT 31             
1 41581C 16035A   21224.00000000 -.00000059  00000-0  00000-0 0  2241
2 41581   0.0400 259.8092 0001055 325.4954   0.3112  1.00269699    13
INTELSAT 31         [PM]
1 41581C 16035A   21224.36355324 -.00000062  00000-0  00000-0 0  2246
2 41581   0.0393 261.8184 0001045 320.7007 134.3288  1.00272533    18
INTELSAT 31             
1 41581C 16035A   21228.00000000 -.00000074  00000-0  00000-0 0  2286
2 41581   0.0285 242.7926 0001145 323.7007  23.0619  1.00270703    13
INTELSAT 36             
1 41747C 16053A   21224.00000000  .00000066  00000-0  00000-0 0  2242
2 41747   0.0068  42.0101 0003406 334.8946  12.2619  1.00270496    18
INTELSAT 36         [PM]
1 41747C 16053A   21224.37504630  .00000076  00000-0  00000-0 0  2241
2 41747   0.0318 330.6848 0003317  33.7047 160.1588  1.00271843    13
INTELSAT 36             
1 41747C 16053A   21228.00000000  .00000066  00000-0  00000-0 0  2280
2 41747   0.0151  21.1862 0003347   1.8137  10.1018  1.00270700    18
INTELSAT 33E            
1 41748C 16053B   21224.00000000  .00000139  00000-0  00000-0 0  2244
2 41748   0.0418 307.1528 0001970 188.0127 245.4954  1.00270051    19
INTELSAT 33E            
1 41748C 16053B   21227.94091435  .00000139  00000-0  00000-0 0  2275
2 41748   0.0253  14.5245 0002222 123.5508 225.1840  1.00271805    16
INTELSAT 33E        [PM]
1 41748C 16053B   21229.74115741  .00000139  00000-0  00000-0 0  2294
2 41748   0.0318 341.1594 0002320 161.5795 150.3806  1.00271646    17
INTELSAT 32E            
1 41945C 17007B   21224.00000000 -.00004044  00000-0  00000-0 0  2243
2 41945   0.0024 159.7441 0000552 225.6783 252.0566  1.00269080    10
INTELSAT 32E            
1 41945C 17007B   21227.94091435 -.00000072  00000-0  00000-0 0  2271
2 41945   0.0014  76.6871 0000750 340.8222 202.5977  1.00270353    12
INTELSAT 32E        [PM]
1 41945C 17007B   21230.19251157 -.00000179  00000-0  00000-0 0  2303
2 41945   0.0047  93.5722 0000522 328.7915 290.5111  1.00273634    14
INTELSAT 35E            
1 42818C 17041A   21224.00000000 -.00003711  00000-0  00000-0 0  2241
2 42818   0.0350 233.5462 0001588 264.7047 147.9014  1.00272620    17
INTELSAT 35E            
1 42818C 17041A   21227.94091435 -.00000148  00000-0  00000-0 0  2273
2 42818   0.0139 165.4070 0001859 336.5726 126.7889  1.00271779    12
INTELSAT 35E        [PM]
1 42818C 17041A   21229.50393519 -.00000154  00000-0  00000-0 0  2294
2 42818   0.0312 228.4654 0001834 275.6352 328.8932  1.00271874    14
INTELSAT 35E        [PM]
1 42818C 17041A   21233.49303241 -.00000149  00000-0  00000-0 0  2339
2 42818   0.0407 238.5544 0001873 277.4618 316.9811  1.00271385    18
INTELSAT 37E            
1 42950C 17059A   21224.00000000 -.00004197  00000-0  00000-0 0  2246
2 42950   0.0003 154.1328 0002483 343.3370 165.2052  1.00271721    12
INTELSAT 37E            
1 42950C 17059A   21227.94091435 -.00000065  00000-0  00000-0 0  2277
2 42950   0.0261 266.2909 0002795 235.2450 143.7466  1.00271646    18
INTELSAT 37E        [PM]
1 42950C 17059A   21229.54513889 -.00000041  00000-0  00000-0 0  2293
2 42950   0.0359 275.7648 0002820 227.2202   1.3965  1.00271017    11
INTELSAT 37E        [PM]
1 42950C 17059A   21233.94652778  .00000020  00000-0  00000-0 0  2334
2 42950   0.0081 182.1794 0002950 329.8098 141.2195  1.00270530    10
AZERSPACE 2             
1 43632C 18074A   21224.00000000  .00000226  00000-0  00000-0 0  2240
2 43632   0.0051 117.6348 0001447  25.1664 222.9734  1.00271137    18
AZERSPACE 2             
1 43632C 18074A   21228.00000000  .00000227  00000-0  00000-0 0  2289
2 43632   0.0013 100.9498 0001646  34.9358 233.8301  1.00270430    12
HORIZONS 3E             
1 43633C 18074B   21228.00000000  .00000060  00000-0  00000-0 0  2285
2 43633   0.0375 290.0763 0000065 240.2684 323.2600  1.00269755    12
INTELSAT 39             
1 44476C 19049B   21224.00000000  .00000123  00000-0  00000-0 0  2246
2 44476   0.0001 159.9236 0001212 203.7496  18.9339  1.00270429    19
INTELSAT 39             
1 44476C 19049B   21228.00000000 -.00003024  00000-0  00000-0 0  2288
2 44476   0.0001  45.2322 0001176 335.6702   5.6406  1.00271195    15
INTELSAT 39         [PM]
1 44476C 19049B   21230.90557870 -.00003144  00000-0  00000-0 0  2308
2 44476   0.0033  46.6510 0001012 339.9919 328.7570  1.00273410    13
GALAXY 30               
1 46114C 20056C   21224.00000000  .00000127  00000-0  00000-0 0  2241
2 46114   0.0067 118.9743 0001916  20.4038  56.2663  1.00273077    14
GALAXY 30               
1 46114C 20056C   21227.94091435  .00000126  00000-0  00000-0 0  2271
2 46114   0.0009 104.1134 0002246  37.2213  36.9441  1.00269924    14
GALAXY 30           [PM]
1 46114C 20056C   21230.72361111  .00000067  00000-0  00000-0 0  2300
2 46114   0.0000 143.3528 0002453   4.5763 314.8498  1.00270403    18
